{
  "type": "FeatureCollection",
  "metadata": {
    "crs": "EPSG:4326",
    "title": "PRB Schematic Geological Context Fixtures (Non-Empirical)",
    "provenance": "PRBsim schematic UI fixture; geometry is hand-authored in prepare_data.py and is NOT extracted from USGS PP 1625-A or MBMG vector files.",
    "isSynthetic": true
  },
  "features": [
    {
      "type": "Feature",
      "id": "geo-fort-union-formation-bound",
      "properties": {
        "id": "geo-fort-union-formation-bound",
        "unitName": "Schematic Paleocene Fort Union Formation (Tongue River Member) Envelope",
        "unitType": "coal_outcrop",
        "formation": "Fort Union Formation (Tongue River Member)",
        "coalBed": "Anderson-Dietz, Canyon, and Roland Coal Zone (Schematic)",
        "sourceId": "usgs-mbmg-prb-geology",
        "scale": "Schematic bounding box (not a surveyed map scale)",
        "isSynthetic": true,
        "notes": "SCHEMATIC FIXTURE ONLY (NOT AGENCY VECTOR DATA): Hand-constructed regional bounding envelope illustrating where sub-bituminous coal beds crop out along the Tongue River and Powder River drainages. Do not use for spatial measurement or geological inference."
      },
      "geometry": {
        "type": "Polygon",
        "coordinates": [
          [
            [
              -106.75,
              44.82
            ],
            [
              -105.65,
              44.82
            ],
            [
              -105.65,
              45.38
            ],
            [
              -106.75,
              45.38
            ],
            [
              -106.75,
              44.82
            ]
          ]
        ]
      }
    },
    {
      "type": "Feature",
      "id": "geo-clinker-badger-peak-bench",
      "properties": {
        "id": "geo-clinker-badger-peak-bench",
        "unitName": "Schematic Badger Peak / Tongue River Escarpment Clinker Zone",
        "unitType": "clinker_deposit",
        "formation": "Fort Union Formation (Thermally Metamorphosed Clinker - Schematic)",
        "coalBed": "Anderson-Dietz Clinker Zone (Schematic)",
        "sourceId": "usgs-mbmg-prb-geology",
        "scale": "Schematic polygon (not a surveyed map scale)",
        "isSynthetic": true,
        "notes": "SCHEMATIC FIXTURE ONLY (NOT AGENCY VECTOR DATA): Illustrative polygon for prehistoric/historic coal-burn clinker benches discussed in Heffern & Coates (2004). Does not represent digitized MBMG or USGS outcrop boundaries."
      },
      "geometry": {
        "type": "Polygon",
        "coordinates": [
          [
            [
              -106.48,
              44.96
            ],
            [
              -106.18,
              44.94
            ],
            [
              -106.1,
              45.14
            ],
            [
              -106.42,
              45.18
            ],
            [
              -106.48,
              44.96
            ]
          ]
        ]
      }
    },
    {
      "type": "Feature",
      "id": "geo-clinker-rosebud-creek-bench",
      "properties": {
        "id": "geo-clinker-rosebud-creek-bench",
        "unitName": "Schematic Northern Remington / Rosebud-Powder Divide Clinker Escarpments",
        "unitType": "clinker_deposit",
        "formation": "Fort Union Formation (Clinker & Baked Shale - Schematic)",
        "coalBed": "Canyon & Roland Coal Zone (Schematic)",
        "sourceId": "usgs-mbmg-prb-geology",
        "scale": "Schematic polygon (not a surveyed map scale)",
        "isSynthetic": true,
        "notes": "SCHEMATIC FIXTURE ONLY (NOT AGENCY VECTOR DATA): Illustrative polygon for fractured clinker caprock. Hidden in default verified mode to prevent confusion with real geological mapping."
      },
      "geometry": {
        "type": "Polygon",
        "coordinates": [
          [
            [
              -106.12,
              45.05
            ],
            [
              -105.82,
              45.03
            ],
            [
              -105.78,
              45.26
            ],
            [
              -106.08,
              45.28
            ],
            [
              -106.12,
              45.05
            ]
          ]
        ]
      }
    }
  ]
}